{
  "type": "FeatureCollection",
  "features": [
    {
      "type": "Feature",
      "properties": {
        "norad_id": 30665,
        "name": "FENGYUN 1C DEB",
        "group": "fengyun-1c-debris",
        "lat": 35.81130992650144,
        "lon": 152.21590339521944,
        "alt_km": 810.6215241524906,
        "timestamp": "2025-12-19T16:54:44.539424+00:00",
        "meta_object_name": "FENGYUN 1C DEB",
        "meta_object_id": "1999-025APX",
        "meta_epoch": "2025-12-18T21:39:36.406944",
        "meta_mean_motion": 14.12373673,
        "meta_eccentricity": 0.00676058,
        "meta_inclination": 99.2083,
        "meta_ra_of_asc_node": 324.6706,
        "meta_arg_of_pericenter": 184.8447,
        "meta_mean_anomaly": 202.7341,
        "meta_ephemeris_type": 0,
        "meta_classification_type": "U",
        "meta_norad_cat_id": 30665,
        "meta_element_set_no": 999,
        "meta_rev_at_epoch": 96057,
        "meta_bstar": 0.0010914877,
        "meta_mean_motion_dot": 2.009e-05,
        "meta_mean_motion_ddot": 0,
        "tle_line1": "1 30665U 99025APX 25352.90250471  .00002009  00000+0  10915-2 0  9998",
        "tle_line2": "2 30665  99.2083 324.6706 0067605 184.8447 202.7341 14.12373673960574"
      },
      "geometry": {
        "type": "Point",
        "coordinates": [
          152.21590339521944,
          35.81130992650144
        ]
      }
    },
    {
      "type": "Feature",
      "properties": {
        "norad_id": 30666,
        "name": "FENGYUN 1C DEB",
        "group": "fengyun-1c-debris",
        "lat": 66.45249720669884,
        "lon": -43.77450844466053,
        "alt_km": 853.8494916949103,
        "timestamp": "2025-12-19T16:54:44.539434+00:00",
        "meta_object_name": "FENGYUN 1C DEB",
        "meta_object_id": "1999-025APY",
        "meta_epoch": "2025-12-18T22:00:54.670752",
        "meta_mean_motion": 14.02559845,
        "meta_eccentricity": 0.00613435,
        "meta_inclination": 98.8221,
        "meta_ra_of_asc_node": 336.3397,
        "meta_arg_of_pericenter": 127.1381,
        "meta_mean_anomaly": 288.1006,
        "meta_ephemeris_type": 0,
        "meta_classification_type": "U",
        "meta_norad_cat_id": 30666,
        "meta_element_set_no": 999,
        "meta_rev_at_epoch": 96197,
        "meta_bstar": 0.00024205056,
        "meta_mean_motion_dot": 3.37e-06,
        "meta_mean_motion_ddot": 0,
        "tle_line1": "1 30666U 99025APY 25352.91729943  .00000337  00000+0  24205-3 0  9995",
        "tle_line2": "2 30666  98.8221 336.3397 0061343 127.1381 288.1006 14.02559845961977"
      },
      "geometry": {
        "type": "Point",
        "coordinates": [
          -43.77450844466053,
          66.45249720669884
        ]
      }
    },
    {
      "type": "Feature",
      "properties": {
        "norad_id": 30668,
        "name": "FENGYUN 1C DEB",
        "group": "fengyun-1c-debris",
        "lat": -54.5776586610855,
        "lon": -126.17585838490822,
        "alt_km": 801.3280093674575,
        "timestamp": "2025-12-19T16:54:44.539445+00:00",
        "meta_object_name": "FENGYUN 1C DEB",
        "meta_object_id": "1999-025AQA",
        "meta_epoch": "2025-12-19T04:02:08.617056",
        "meta_mean_motion": 14.12366574,
        "meta_eccentricity": 0.00796403,
        "meta_inclination": 99.1306,
        "meta_ra_of_asc_node": 66.3461,
        "meta_arg_of_pericenter": 228.2584,
        "meta_mean_anomaly": 160.6801,
        "meta_ephemeris_type": 0,
        "meta_classification_type": "U",
        "meta_norad_cat_id": 30668,
        "meta_element_set_no": 999,
        "meta_rev_at_epoch": 96146,
        "meta_bstar": 0.0012912728,
        "meta_mean_motion_dot": 2.406e-05,
        "meta_mean_motion_ddot": 0,
        "tle_line1": "1 30668U 99025AQA 25353.16815529  .00002406  00000+0  12913-2 0  9992",
        "tle_line2": "2 30668  99.1306  66.3461 0079640 228.2584 160.6801 14.12366574961463"
      },
      "geometry": {
        "type": "Point",
        "coordinates": [
          -126.17585838490822,
          -54.5776586610855
        ]
      }
    },
    {
      "type": "Feature",
      "properties": {
        "norad_id": 30669,
        "name": "FENGYUN 1C DEB",
        "group": "fengyun-1c-debris",
        "lat": 48.3223751951503,
        "lon": -79.81070658570941,
        "alt_km": 905.1152165606727,
        "timestamp": "2025-12-19T16:54:44.539458+00:00",
        "meta_object_name": "FENGYUN 1C DEB",
        "meta_object_id": "1999-025AQB",
        "meta_epoch": "2025-12-18T18:43:31.489248",
        "meta_mean_motion": 14.02747037,
        "meta_eccentricity": 0.01180054,
        "meta_inclination": 98.6346,
        "meta_ra_of_asc_node": 289.1397,
        "meta_arg_of_pericenter": 159.4802,
        "meta_mean_anomaly": 265.1334,
        "meta_ephemeris_type": 0,
        "meta_classification_type": "U",
        "meta_norad_cat_id": 30669,
        "meta_element_set_no": 999,
        "meta_rev_at_epoch": 95538,
        "meta_bstar": 0.0010894426,
        "meta_mean_motion_dot": 1.75e-05,
        "meta_mean_motion_ddot": 0,
        "tle_line1": "1 30669U 99025AQB 25352.78022557  .00001750  00000+0  10894-2 0  9998",
        "tle_line2": "2 30669  98.6346 289.1397 0118005 159.4802 265.1334 14.02747037955384"
      },
      "geometry": {
        "type": "Point",
        "coordinates": [
          -79.81070658570941,
          48.3223751951503
        ]
      }
    },
    {
      "type": "Feature",
      "properties": {
        "norad_id": 30670,
        "name": "FENGYUN 1C DEB",
        "group": "fengyun-1c-debris",
        "lat": -57.77722585798277,
        "lon": 52.05280886640504,
        "alt_km": 855.773047132494,
        "timestamp": "2025-12-19T16:54:44.539468+00:00",
        "meta_object_name": "FENGYUN 1C DEB",
        "meta_object_id": "1999-025AQC",
        "meta_epoch": "2025-12-19T02:03:47.269728",
        "meta_mean_motion": 14.15819807,
        "meta_eccentricity": 0.00397095,
        "meta_inclination": 98.7097,
        "meta_ra_of_asc_node": 37.3721,
        "meta_arg_of_pericenter": 51.8909,
        "meta_mean_anomaly": 337.943,
        "meta_ephemeris_type": 0,
        "meta_classification_type": "U",
        "meta_norad_cat_id": 30670,
        "meta_element_set_no": 999,
        "meta_rev_at_epoch": 97242,
        "meta_bstar": 8.5257959e-05,
        "meta_mean_motion_dot": 1.26e-06,
        "meta_mean_motion_ddot": 0,
        "tle_line1": "1 30670U 99025AQC 25353.08596377  .00000126  00000+0  85258-4 0  9994",
        "tle_line2": "2 30670  98.7097  37.3721 0039709  51.8909 337.9430 14.15819807972428"
      },
      "geometry": {
        "type": "Point",
        "coordinates": [
          52.05280886640504,
          -57.77722585798277
        ]
      }
    },
    {
      "type": "Feature",
      "properties": {
        "norad_id": 30671,
        "name": "FENGYUN 1C DEB",
        "group": "fengyun-1c-debris",
        "lat": 61.17517862355444,
        "lon": -104.3299545386336,
        "alt_km": 923.2188295830883,
        "timestamp": "2025-12-19T16:54:44.539479+00:00",
        "meta_object_name": "FENGYUN 1C DEB",
        "meta_object_id": "1999-025AQD",
        "meta_epoch": "2025-12-18T21:41:14.240256",
        "meta_mean_motion": 13.95480413,
        "meta_eccentricity": 0.01258259,
        "meta_inclination": 99.2521,
        "meta_ra_of_asc_node": 57.6372,
        "meta_arg_of_pericenter": 16.4126,
        "meta_mean_anomaly": 37.493,
        "meta_ephemeris_type": 0,
        "meta_classification_type": "U",
        "meta_norad_cat_id": 30671,
        "meta_element_set_no": 999,
        "meta_rev_at_epoch": 95281,
        "meta_bstar": 0.0011570098,
        "meta_mean_motion_dot": 1.633e-05,
        "meta_mean_motion_ddot": 0,
        "tle_line1": "1 30671U 99025AQD 25352.90363704  .00001633  00000+0  11570-2 0  9999",
        "tle_line2": "2 30671  99.2521  57.6372 0125825  16.4126  37.4930 13.95480413952819"
      },
      "geometry": {
        "type": "Point",
        "coordinates": [
          -104.3299545386336,
          61.17517862355444
        ]
      }
    },
    {
      "type": "Feature",
      "properties": {
        "norad_id": 30673,
        "name": "FENGYUN 1C DEB",
        "group": "fengyun-1c-debris",
        "lat": 44.72637865162133,
        "lon": -128.32140113089693,
        "alt_km": 840.3562695804003,
        "timestamp": "2025-12-19T16:54:44.539489+00:00",
        "meta_object_name": "FENGYUN 1C DEB",
        "meta_object_id": "1999-025AQF",
        "meta_epoch": "2025-12-17T22:20:34.112832",
        "meta_mean_motion": 14.03457426,
        "meta_eccentricity": 0.00527788,
        "meta_inclination": 98.9192,
        "meta_ra_of_asc_node": 40.9912,
        "meta_arg_of_pericenter": 128.3159,
        "meta_mean_anomaly": 49.3211,
        "meta_ephemeris_type": 0,
        "meta_classification_type": "U",
        "meta_norad_cat_id": 30673,
        "meta_element_set_no": 999,
        "meta_rev_at_epoch": 96604,
        "meta_bstar": -1.7809049e-05,
        "meta_mean_motion_dot": -7.1e-07,
        "meta_mean_motion_ddot": 0,
        "tle_line1": "1 30673U 99025AQF 25351.93095038 -.00000071  00000+0 -17809-4 0  9995",
        "tle_line2": "2 30673  98.9192  40.9912 0052778 128.3159  49.3211 14.03457426966043"
      },
      "geometry": {
        "type": "Point",
        "coordinates": [
          -128.32140113089693,
          44.72637865162133
        ]
      }
    }
  ]
}